ONEWEB-0066             
1 45424U 20020A   23296.77956616  .00000213  00000+0  56443-3 0  9992
2 45424  87.9000 213.2540 0001979  60.1768 299.9556 13.11416949175889
ONEWEB-0067             
1 45425U 20020B   23296.80308166 -.00000647  00000+0 -18609-2 0  9992
2 45425  87.9001 213.2229 0002132  74.3112 285.8251 13.11416987175942
ONEWEB-0080             
1 45426U 20020C   23296.82825291  .00000175  00000+0  45743-3 0  9992
2 45426  87.9004 213.2462 0001998  61.6480 298.4849 13.11414243175914
ONEWEB-0090             
1 45427U 20020D   23296.84612351  .00000440  00000+0  12053-2 0  9998
2 45427  87.8997 213.2223 0001752  67.1857 292.9456 13.11420436175887
ONEWEB-0061             
1 45428U 20020E   23296.80227101 -.00000616  00000+0 -17731-2 0  9995
2 45428  87.9003 213.2323 0001929  72.5718 287.5621 13.11417057175834
ONEWEB-0081             
1 45429U 20020F   23296.85909310 -.00000002  00000+0 -42654-4 0  9993
2 45429  87.8997 213.2401 0002030  68.9743 291.1602 13.11414522175951
ONEWEB-0069             
1 45430U 20020G   23296.84938138  .00000316  00000+0  85715-3 0  9994
2 45430  87.8992 213.2334 0001790  71.4962 288.6360 13.11416507175886
ONEWEB-0031             
1 45431U 20020H   23296.82015143  .00000031  00000+0  51936-4 0  9998
2 45431  87.9001 213.2338 0001764  82.4451 277.6877 13.11420793175860
